[{"OBJECT_NAME":"HAWK-2B","OBJECT_ID":"2021-006CZ","EPOCH":"2026-03-09T16:13:51.664224","MEAN_MOTION":15.33301353,"ECCENTRICITY":0.00071021,"INCLINATION":97.2334,"RA_OF_ASC_NODE":114.114,"ARG_OF_PERICENTER":185.9063,"MEAN_ANOMALY":174.2098,"EPHEMERIS_TYPE":0,"CLASSIFICATION_TYPE":"U","NORAD_CAT_ID":47508,"ELEMENT_SET_NO":999,"REV_AT_EPOCH":28424,"BSTAR":0.00029650607,"MEAN_MOTION_DOT":9.474e-5,"MEAN_MOTION_DDOT":0},{"OBJECT_NAME":"STARLINK-2695","OBJECT_ID":"2021-044G","EPOCH":"2026-03-09T09:50:29.031072","MEAN_MOTION":15.3020115,"ECCENTRICITY":0.0001433,"INCLINATION":53.1595,"RA_OF_ASC_NODE":115.3558,"ARG_OF_PERICENTER":76.772,"MEAN_ANOMALY":283.3441,"EPHEMERIS_TYPE":0,"CLASSIFICATION_TYPE":"U","NORAD_CAT_ID":48644,"ELEMENT_SET_NO":999,"REV_AT_EPOCH":26378,"BSTAR":5.9383872e-5,"MEAN_MOTION_DOT":1.4e-5,"MEAN_MOTION_DDOT":0}]
