HAWK-2B                 
1 47508U 21006CZ  26068.67629241  .00009474  00000+0  29651-3 0  9991
2 47508  97.2334 114.1140 0007102 185.9063 174.2098 15.33301353284246
STARLINK-2695           
1 48644U 21044G   26068.41005823  .00001400  00000+0  59384-4 0  9999
2 48644  53.1595 115.3558 0001433  76.7720 283.3441 15.30201150263783
